INTELSAT 902 (IS-902)   
1 26900U 01039A   26166.17755505 -.00000284  00000+0  00000+0 0  9999
2 26900   6.1123  71.8090 0004488   8.9275 196.5439  1.00270716 90675
INTELSAT 904 (IS-904)   
1 27380U 02007A   26166.03889626 -.00000226  00000+0  00000+0 0  9991
2 27380   6.9148  69.2101 0006460   4.6857 171.9453  1.00270923 51746
DIRECTV 5 (TEMPO 1)     
1 27426U 02023A   26166.23720545 -.00000057  00000+0  00000+0 0  9998
2 27426   4.8730  75.3346 0003239  22.8606 140.6192  1.00271492 88100
INTELSAT 905 (IS-905)   
1 27438U 02027A   26165.59827877  .00000095  00000+0  00000+0 0  9990
2 27438   6.7471  69.8304 0003797  20.9273 250.3045  1.00272386 51330
GALAXY 3C (G-3C)        
1 27445U 02030A   26166.24023880 -.00000151  00000+0  00000+0 0  9991
2 27445   3.7268  78.0023 0001535  33.4688 143.6925  1.00271067 46471
INTELSAT 906 (IS-906)   
1 27513U 02041A   26166.20302918  .00000012  00000+0  00000+0 0  9992
2 27513   5.7978  72.9468 0004623   5.0095 322.7640  1.00272553 87000
GALAXY 13 (HORIZONS-1)  
1 27954U 03044A   26166.15805253  .00000136  00000+0  00000+0 0  9996
2 27954   1.4143  83.8911 0002288 349.9570  96.4900  1.00270107 46555
INTELSAT 10-02          
1 28358U 04022A   26166.04498884 -.00000007  00000+0  00000+0 0  9996
2 28358   0.0110 323.4081 0000383 227.1731  87.9371  1.00269697 80539
DIRECTV 8               
1 28659U 05019A   26166.23547211  .00000005  00000+0  00000+0 0  9994
2 28659   0.0165 316.1483 0002767 132.1137 140.9753  1.00271416 77050
GALAXY 28 (G-28)        
1 28702U 05022A   26166.25364120 -.00000199  00000+0  00000+0 0  9990
2 28702   3.2938  78.9578 0002876   4.5765 244.2166  1.00270972 51953
GALAXY 16 (G-16)        
1 29236U 06023A   26166.29731128 -.00000123  00000+0  00000+0 0  9992
2 29236   0.0025 256.1890 0002466 201.1660 174.2509  1.00270362 72958
DIRECTV 9S              
1 29494U 06043A   26166.23902545 -.00000111  00000+0  00000+0 0  9994
2 29494   2.4159  80.9256 0004843  11.7583 155.7001  1.00270824 51363
GALAXY 17 (G-17)        
1 31307U 07016B   26166.16016965 -.00000204  00000+0  00000+0 0  9998
2 31307   2.9671  79.9234 0004596  20.5527 135.6113  1.00266693 69783
INTELSAT 11 (IS-11)     
1 32253U 07044B   26166.28562134 -.00000270  00000+0  00000+0 0  9990
2 32253   3.5607  78.6914 0002255  91.3621 330.5659  0.99051625 68438
HORIZONS-2              
1 32388U 07063B   26166.24442000 -.00000251  00000+0  00000+0 0  9994
2 32388   2.5973  80.6496 0003718   0.9795 196.0998  1.00269027 67792
DIRECTV 11              
1 32729U 08013A   26165.95419218 -.00000120  00000+0  00000+0 0  9996
2 32729   0.0094 269.4466 0000494  94.4042 143.7272  1.00270145 45572
GALAXY 18 (G-18)        
1 32951U 08024A   26166.30665968  .00000029  00000+0  00000+0 0  9997
2 32951   0.0183  19.9320 0002688  65.3758 165.6796  1.00271867 45838
INTELSAT 25 (IS-25)     
1 33153U 08034A   26166.28475468 -.00000253  00000+0  00000+0 0  9994
2 33153   2.7051  80.3939 0003197  60.0934 355.7171  0.99035667 65674
GALAXY 19 (G-19)        
1 33376U 08045A   26166.31306465 -.00000135  00000+0  00000+0 0  9996
2 33376   0.0411 264.4454 0002369 182.8686 191.9942  1.00270700 64886
FM-5                    
1 35493U 09034A   26165.81425551 -.00000194  00000+0  00000+0 0  9994
2 35493   0.0205 292.4193 0001018  18.8658 158.8044  1.00269724 46628
INTELSAT 14 (IS-14)     
1 36097U 09064A   26166.17881487 -.00000269  00000+0  00000+0 0  9995
2 36097   0.0198  51.5279 0002145  24.7624 206.5600  1.00270200 60581
INTELSAT 15 (IS-15)     
1 36106U 09067A   26165.99075677 -.00000180  00000+0  00000+0 0  9996
2 36106   0.0210  52.3805 0002011  35.3627 257.3601  1.00270721 41205
DIRECTV 12              
1 36131U 09075A   26165.95349884 -.00000098  00000+0  00000+0 0  9991
2 36131   0.0094 103.7764 0000327 278.9922 121.0152  1.00271364 46532
INTELSAT 16 (IS-16)     
1 36397U 10006A   26166.20230375 -.00000240  00000+0  00000+0 0  9993
2 36397   0.0201 302.8300 0001916 162.2583 155.0286  1.00269482 59635
XM-5                    
1 37185U 10053A   26166.01642035 -.00000018  00000+0  00000+0 0  9993
2 37185   0.0647 273.1886 0002890 289.1857 311.6507  1.00271028 57463
INTELSAT 17 (IS-17)     
1 37238U 10065B   26166.20650134  .00000003  00000+0  00000+0 0  9998
2 37238   0.0100 282.8025 0002553 169.4403 311.5861  1.00271411 53229
INTELSAT 28 (IS-28)     
1 37392U 11016A   26166.25277453 -.00000223  00000+0  00000+0 0  9995
2 37392   1.8014  82.6438 0003583   5.9993 234.1829  1.00270078 53265
INTELSAT 18 (IS-18)     
1 37834U 11056A   26166.22336172  .00000057  00000+0  00000+0 0  9995
2 37834   0.0141 299.4016 0001543 143.5710  80.9464  1.00271094 53797
INTELSAT 22 (IS-22)     
1 38098U 12011A   26166.19955425  .00000000  00000+0  00000+0 0  9992
2 38098   0.0412  54.6311 0001604  44.5210 308.2583  1.00271298  7167
INTELSAT 19 (IS-19)     
1 38356U 12030A   26166.22058838 -.00000053  00000+0  00000+0 0  9995
2 38356   0.0173 348.7930 0002804 104.0952  56.0274  1.00270843 50438
INTELSAT 20 (IS-20)     
1 38740U 12043A   26166.20302918 -.00000020  00000+0  00000+0 0  9999
2 38740   0.0044  73.3145 0001741 103.2982 228.4824  1.00271377 50725
